[{"OBJECT_NAME":"INTELSAT 23 (IS-23)","OBJECT_ID":"2012-057A","EPOCH":"2026-03-06T23:58:33.166272","MEAN_MOTION":1.00269773,"ECCENTRICITY":0.0001218,"INCLINATION":0.0468,"RA_OF_ASC_NODE":260.1911,"ARG_OF_PERICENTER":99.1615,"MEAN_ANOMALY":111.9803,"EPHEMERIS_TYPE":0,"CLASSIFICATION_TYPE":"U","NORAD_CAT_ID":38867,"ELEMENT_SET_NO":999,"REV_AT_EPOCH":4893,"BSTAR":0,"MEAN_MOTION_DOT":-2.87e-6,"MEAN_MOTION_DDOT":0},{"OBJECT_NAME":"FM-6","OBJECT_ID":"2013-058A","EPOCH":"2026-03-06T23:05:24.309024","MEAN_MOTION":1.00274361,"ECCENTRICITY":0.0003056,"INCLINATION":0.0226,"RA_OF_ASC_NODE":131.1335,"ARG_OF_PERICENTER":56.6832,"MEAN_ANOMALY":207.0436,"EPHEMERIS_TYPE":0,"CLASSIFICATION_TYPE":"U","NORAD_CAT_ID":39360,"ELEMENT_SET_NO":999,"REV_AT_EPOCH":4504,"BSTAR":0,"MEAN_MOTION_DOT":-2.0e-7,"MEAN_MOTION_DDOT":0},{"OBJECT_NAME":"INTELSAT 30 (IS-30)","OBJECT_ID":"2014-062A","EPOCH":"2026-03-05T20:23:30.045120","MEAN_MOTION":1.00273148,"ECCENTRICITY":0.00014953,"INCLINATION":0.0186,"RA_OF_ASC_NODE":81.7272,"ARG_OF_PERICENTER":27.0241,"MEAN_ANOMALY":265.6525,"EPHEMERIS_TYPE":0,"CLASSIFICATION_TYPE":"U","NORAD_CAT_ID":40271,"ELEMENT_SET_NO":999,"REV_AT_EPOCH":575,"BSTAR":0,"MEAN_MOTION_DOT":-1.57e-6,"MEAN_MOTION_DDOT":0},{"OBJECT_NAME":"DIRECTV 14","OBJECT_ID":"2014-078B","EPOCH":"2026-03-07T03:10:44.736672","MEAN_MOTION":1.00269614,"ECCENTRICITY":5.76e-5,"INCLINATION":0.0214,"RA_OF_ASC_NODE":136.0896,"ARG_OF_PERICENTER":339.7667,"MEAN_ANOMALY":357.4578,"EPHEMERIS_TYPE":0,"CLASSIFICATION_TYPE":"U","NORAD_CAT_ID":40333,"ELEMENT_SET_NO":999,"REV_AT_EPOCH":4102,"BSTAR":0,"MEAN_MOTION_DOT":0,"MEAN_MOTION_DDOT":0},{"OBJECT_NAME":"DIRECTV 15","OBJECT_ID":"2015-026A","EPOCH":"2026-03-07T03:09:37.344672","MEAN_MOTION":1.00270691,"ECCENTRICITY":4.12e-5,"INCLINATION":0.0222,"RA_OF_ASC_NODE":105.0177,"ARG_OF_PERICENTER":84.8432,"MEAN_ANOMALY":279.499,"EPHEMERIS_TYPE":0,"CLASSIFICATION_TYPE":"U","NORAD_CAT_ID":40663,"ELEMENT_SET_NO":999,"REV_AT_EPOCH":3944,"BSTAR":0,"MEAN_MOTION_DOT":-1.05e-6,"MEAN_MOTION_DDOT":0},{"OBJECT_NAME":"SKY MEXICO-1","OBJECT_ID":"2015-026B","EPOCH":"2026-03-07T03:16:29.186688","MEAN_MOTION":1.00272061,"ECCENTRICITY":0.000222,"INCLINATION":0.0119,"RA_OF_ASC_NODE":113.0339,"ARG_OF_PERICENTER":252.6815,"MEAN_ANOMALY":129.4446,"EPHEMERIS_TYPE":0,"CLASSIFICATION_TYPE":"U","NORAD_CAT_ID":40664,"ELEMENT_SET_NO":999,"REV_AT_EPOCH":3943,"BSTAR":0,"MEAN_MOTION_DOT":-2.37e-6,"MEAN_MOTION_DDOT":0},{"OBJECT_NAME":"INTELSAT 34 (IS-34)","OBJECT_ID":"2015-039A","EPOCH":"2026-03-07T03:23:13.541280","MEAN_MOTION":1.00275443,"ECCENTRICITY":1.51e-5,"INCLINATION":0.0149,"RA_OF_ASC_NODE":241.8093,"ARG_OF_PERICENTER":147.9926,"MEAN_ANOMALY":130.3572,"EPHEMERIS_TYPE":0,"CLASSIFICATION_TYPE":"U","NORAD_CAT_ID":40874,"ELEMENT_SET_NO":999,"REV_AT_EPOCH":3860,"BSTAR":0,"MEAN_MOTION_DOT":-2.88e-6,"MEAN_MOTION_DDOT":0},{"OBJECT_NAME":"INTELSAT 31 (IS-31)","OBJECT_ID":"2016-035A","EPOCH":"2026-03-07T03:06:38.820672","MEAN_MOTION":1.00272564,"ECCENTRICITY":0.0001555,"INCLINATION":0.0323,"RA_OF_ASC_NODE":241.21,"ARG_OF_PERICENTER":348.2276,"MEAN_ANOMALY":247.0087,"EPHEMERIS_TYPE":0,"CLASSIFICATION_TYPE":"U","NORAD_CAT_ID":41581,"ELEMENT_SET_NO":999,"REV_AT_EPOCH":3566,"BSTAR":0,"MEAN_MOTION_DOT":-1.53e-6,"MEAN_MOTION_DDOT":0},{"OBJECT_NAME":"INTELSAT 36 (IS-36)","OBJECT_ID":"2016-053A","EPOCH":"2026-03-07T02:15:50.004000","MEAN_MOTION":1.00269728,"ECCENTRICITY":0.0001085,"INCLINATION":0.0163,"RA_OF_ASC_NODE":124.1822,"ARG_OF_PERICENTER":213.6537,"MEAN_ANOMALY":289.4368,"EPHEMERIS_TYPE":0,"CLASSIFICATION_TYPE":"U","NORAD_CAT_ID":41747,"ELEMENT_SET_NO":999,"REV_AT_EPOCH":3493,"BSTAR":0,"MEAN_MOTION_DOT":0,"MEAN_MOTION_DDOT":0},{"OBJECT_NAME":"INTELSAT 32E (IS-32E)","OBJECT_ID":"2017-007B","EPOCH":"2026-03-07T00:01:17.901696","MEAN_MOTION":1.00274666,"ECCENTRICITY":4.11e-5,"INCLINATION":0.017,"RA_OF_ASC_NODE":131.1534,"ARG_OF_PERICENTER":182.4283,"MEAN_ANOMALY":168.2637,"EPHEMERIS_TYPE":0,"CLASSIFICATION_TYPE":"U","NORAD_CAT_ID":41945,"ELEMENT_SET_NO":999,"REV_AT_EPOCH":3320,"BSTAR":0,"MEAN_MOTION_DOT":-2.72e-6,"MEAN_MOTION_DDOT":0},{"OBJECT_NAME":"INTELSAT 35E (IS-35E)","OBJECT_ID":"2017-041A","EPOCH":"2026-03-07T03:29:05.477856","MEAN_MOTION":1.00272446,"ECCENTRICITY":0.0002078,"INCLINATION":0.0167,"RA_OF_ASC_NODE":224.5677,"ARG_OF_PERICENTER":125.438,"MEAN_ANOMALY":192.6023,"EPHEMERIS_TYPE":0,"CLASSIFICATION_TYPE":"U","NORAD_CAT_ID":42818,"ELEMENT_SET_NO":999,"REV_AT_EPOCH":3179,"BSTAR":0,"MEAN_MOTION_DOT":-2.4e-6,"MEAN_MOTION_DDOT":0},{"OBJECT_NAME":"INTELSAT 37E (IS-37E)","OBJECT_ID":"2017-059A","EPOCH":"2026-03-07T00:08:32.208576","MEAN_MOTION":1.00271635,"ECCENTRICITY":0.000214,"INCLINATION":0.0205,"RA_OF_ASC_NODE":139.5603,"ARG_OF_PERICENTER":210.8515,"MEAN_ANOMALY":158.4253,"EPHEMERIS_TYPE":0,"CLASSIFICATION_TYPE":"U","NORAD_CAT_ID":42950,"ELEMENT_SET_NO":999,"REV_AT_EPOCH":3104,"BSTAR":0,"MEAN_MOTION_DOT":-1.44e-6,"MEAN_MOTION_DDOT":0},{"OBJECT_NAME":"AZERSPACE 2 (IS-38)","OBJECT_ID":"2018-074A","EPOCH":"2026-03-07T02:09:13.137696","MEAN_MOTION":1.00270745,"ECCENTRICITY":0.000143,"INCLINATION":0.0206,"RA_OF_ASC_NODE":157.1126,"ARG_OF_PERICENTER":207.3265,"MEAN_ANOMALY":237.7884,"EPHEMERIS_TYPE":0,"CLASSIFICATION_TYPE":"U","NORAD_CAT_ID":43632,"ELEMENT_SET_NO":999,"REV_AT_EPOCH":2742,"BSTAR":0,"MEAN_MOTION_DOT":0,"MEAN_MOTION_DDOT":0},{"OBJECT_NAME":"HORIZONS-3E","OBJECT_ID":"2018-074B","EPOCH":"2026-03-07T02:44:32.252352","MEAN_MOTION":1.00272125,"ECCENTRICITY":5.76e-5,"INCLINATION":0.0094,"RA_OF_ASC_NODE":214.7024,"ARG_OF_PERICENTER":128.9563,"MEAN_ANOMALY":31.2675,"EPHEMERIS_TYPE":0,"CLASSIFICATION_TYPE":"U","NORAD_CAT_ID":43633,"ELEMENT_SET_NO":999,"REV_AT_EPOCH":2731,"BSTAR":0,"MEAN_MOTION_DOT":-3.3e-7,"MEAN_MOTION_DDOT":0},{"OBJECT_NAME":"AT&T T-16","OBJECT_ID":"2019-034A","EPOCH":"2026-03-07T03:06:38.820672","MEAN_MOTION":1.00270607,"ECCENTRICITY":7.02e-5,"INCLINATION":0.022,"RA_OF_ASC_NODE":103.5753,"ARG_OF_PERICENTER":59.8818,"MEAN_ANOMALY":307.1743,"EPHEMERIS_TYPE":0,"CLASSIFICATION_TYPE":"U","NORAD_CAT_ID":44333,"ELEMENT_SET_NO":999,"REV_AT_EPOCH":2461,"BSTAR":0,"MEAN_MOTION_DOT":-1.17e-6,"MEAN_MOTION_DDOT":0},{"OBJECT_NAME":"INTELSAT 39 (IS-39)","OBJECT_ID":"2019-049B","EPOCH":"2026-03-07T02:13:57.682272","MEAN_MOTION":1.00270027,"ECCENTRICITY":5.69e-5,"INCLINATION":0.0214,"RA_OF_ASC_NODE":158.1507,"ARG_OF_PERICENTER":346.5405,"MEAN_ANOMALY":115.5547,"EPHEMERIS_TYPE":0,"CLASSIFICATION_TYPE":"U","NORAD_CAT_ID":44476,"ELEMENT_SET_NO":999,"REV_AT_EPOCH":2410,"BSTAR":0,"MEAN_MOTION_DOT":0,"MEAN_MOTION_DDOT":0},{"OBJECT_NAME":"GALAXY 30 (G-30)","OBJECT_ID":"2020-056C","EPOCH":"2026-03-07T03:22:38.728128","MEAN_MOTION":1.00271923,"ECCENTRICITY":0.0002041,"INCLINATION":0.0216,"RA_OF_ASC_NODE":152.145,"ARG_OF_PERICENTER":204.8651,"MEAN_ANOMALY":93.5172,"EPHEMERIS_TYPE":0,"CLASSIFICATION_TYPE":"U","NORAD_CAT_ID":46114,"ELEMENT_SET_NO":999,"REV_AT_EPOCH":2026,"BSTAR":0,"MEAN_MOTION_DOT":0,"MEAN_MOTION_DDOT":0}]
