INTELSAT 23 (IS-23)     
1 38867U 12057A   26065.99899498 -.00000287  00000+0  00000+0 0  9997
2 38867   0.0468 260.1911 0001218  99.1615 111.9803  1.00269773 48937
FM-6                    
1 39360U 13058A   26065.96208691 -.00000020  00000+0  00000+0 0  9999
2 39360   0.0226 131.1335 0003056  56.6832 207.0436  1.00274361 45043
INTELSAT 30 (IS-30)     
1 40271U 14062A   26064.84965330 -.00000157  00000+0  00000+0 0  9995
2 40271   0.0186  81.7272 0001495  27.0241 265.6525  1.00273148  5757
DIRECTV 14              
1 40333U 14078B   26066.13246223  .00000000  00000+0  00000+0 0  9994
2 40333   0.0214 136.0896 0000576 339.7667 357.4578  1.00269614 41029
DIRECTV 15              
1 40663U 15026A   26066.13168223 -.00000105  00000+0  00000+0 0  9994
2 40663   0.0222 105.0177 0000412  84.8432 279.4990  1.00270691 39440
SKY MEXICO-1            
1 40664U 15026B   26066.13644892 -.00000237  00000+0  00000+0 0  9992
2 40664   0.0119 113.0339 0002220 252.6815 129.4446  1.00272061 39436
INTELSAT 34 (IS-34)     
1 40874U 15039A   26066.14112895 -.00000288  00000+0  00000+0 0  9999
2 40874   0.0149 241.8093 0000151 147.9926 130.3572  1.00275443 38605
INTELSAT 31 (IS-31)     
1 41581U 16035A   26066.12961598 -.00000153  00000+0  00000+0 0  9993
2 41581   0.0323 241.2100 0001555 348.2276 247.0087  1.00272564 35662
INTELSAT 36 (IS-36)     
1 41747U 16053A   26066.09432875  .00000000  00000+0  00000+0 0  9994
2 41747   0.0163 124.1822 0001085 213.6537 289.4368  1.00269728 34930
INTELSAT 32E (IS-32E)   
1 41945U 17007B   26066.00090164 -.00000272  00000+0  00000+0 0  9998
2 41945   0.0170 131.1534 0000411 182.4283 168.2637  1.00274666 33208
INTELSAT 35E (IS-35E)   
1 42818U 17041A   26066.14520229 -.00000240  00000+0  00000+0 0  9996
2 42818   0.0167 224.5677 0002078 125.4380 192.6023  1.00272446 31791
INTELSAT 37E (IS-37E)   
1 42950U 17059A   26066.00592834 -.00000144  00000+0  00000+0 0  9991
2 42950   0.0205 139.5603 0002140 210.8515 158.4253  1.00271635 31046
AZERSPACE 2 (IS-38)     
1 43632U 18074A   26066.08973539  .00000000  00000+0  00000+0 0  9990
2 43632   0.0206 157.1126 0001430 207.3265 237.7884  1.00270745 27424
HORIZONS-3E             
1 43633U 18074B   26066.11426218 -.00000033  00000+0  00000+0 0  9999
2 43633   0.0094 214.7024 0000576 128.9563  31.2675  1.00272125 27313
AT&T T-16               
1 44333U 19034A   26066.12961598 -.00000117  00000+0  00000+0 0  9993
2 44333   0.0220 103.5753 0000702  59.8818 307.1743  1.00270607 24616
INTELSAT 39 (IS-39)     
1 44476U 19049B   26066.09302873  .00000000  00000+0  00000+0 0  9998
2 44476   0.0214 158.1507 0000569 346.5405 115.5547  1.00270027 24102
GALAXY 30 (G-30)        
1 46114U 20056C   26066.14072602  .00000000  00000+0  00000+0 0  9999
2 46114   0.0216 152.1450 0002041 204.8651  93.5172  1.00271923 20260
